FALCON 9 DEB            
1 54106U 22136BH  22304.83098175  .01433016  11704-4  89602-3 0  9995
2 54106  53.2124  91.0313 0042577  82.6664 277.9210 16.14862756  1813
FALCON 9 DEB            
1 54107U 22136BJ  22304.82201177  .01623535  11754-4  90807-3 0  9994
2 54107  53.2151  90.9631 0039880  75.0088 285.5360 16.16567539  1818
FALCON 9 DEB            
1 54108U 22136BK  22305.12896682  .01886851  11811-4  90283-3 0  9994
2 54108  53.2158  89.3203 0037725  75.8973 284.6255 16.18729355  1866
COSMOS 2561             
1 54109U 22137A   22304.92693712  .00018471  00000+0  31833-3 0  9995
2 54109  97.0756  24.8354 0007871 224.2263 135.8361 15.51065772  1563
COSMOS 2562             
1 54110U 22137B   22304.92215156  .00019168  00000+0  30873-3 0  9996
2 54110  97.0754  24.8419 0011956 246.0769 113.9232 15.52909813  1565
SL-4 R/B                
1 54111U 22137C   22305.35394825  .02843110  23217-5  70937-3 0  9996
2 54111  97.0672  26.1309 0073531  33.8512  30.9303 16.21750170  1691
ONEWEB-0490             
1 54113U 22138A   22305.00002315 -.00009064  00000+0 -93104-3 0  9993
2 54113  87.4291 213.9396 0011301 257.3191  19.6516 14.90579754  2241
ONEWEB-0492             
1 54114U 22138B   22304.91668981 -.00053181  00000+0 -55249-2 0  9996
2 54114  87.4298 213.9686 0012728 260.0548 278.7412 14.90261277  1309
ONEWEB-0495             
1 54115U 22138C   22304.91668981 -.00051490  00000+0 -54792-2 0  9990
2 54115  87.4309 213.9758 0013210 278.9809 227.8116 14.89279541  1305
ONEWEB-0497             
1 54116U 22138D   22304.91668981 -.00052765  00000+0 -55137-2 0  9991
2 54116  87.4317 213.9718 0013313 265.1167 265.7877 14.90018466  1304
ONEWEB-0499             
1 54117U 22138E   22305.25001157  .00012353  00000+0  12676-2 0  9994
2 54117  87.4312 213.8596 0012491 258.6551 268.6395 14.90274944  2283
ONEWEB-0500             
1 54118U 22138F   22304.91668981 -.00054062  00000+0 -55039-2 0  9996
2 54118  87.4297 213.9620 0009134 259.4517 307.0869 14.91109167  1307
ONEWEB-0501             
1 54119U 22138G   22305.25001157  .00014132  00000+0  14681-2 0  9991
2 54119  87.4280 213.8593 0013697 267.8899 241.9377 14.89767002  2286
ONEWEB-0502             
1 54120U 22138H   22305.25001157  .00014842  00000+0  15034-2 0  9994
2 54120  87.4299 213.8550 0010071 254.8660 290.5434 14.90815423  2283
ONEWEB-0503             
1 54121U 22138J   22305.25001157  .00014575  00000+0  14941-2 0  9994
2 54121  87.4289 213.8593 0012336 258.3470 270.1550 14.90317520  2282
ONEWEB-0504             
1 54122U 22138K   22304.91668981 -.00054079  00000+0 -55189-2 0  9995
2 54122  87.4305 213.9677 0009120 259.8800 303.5198 14.91012866  1303
ONEWEB-0505             
1 54123U 22138L   22304.91668981 -.00051542  00000+0 -54668-2 0  9999
2 54123  87.4282 213.9684 0013279 274.4635 236.4574 14.89411794  1307
ONEWEB-0506             
1 54124U 22138M   22304.91668981 -.00051910  00000+0 -54892-2 0  9998
2 54124  87.4300 213.9725 0014590 276.0152 238.6976 14.89520657  1303
ONEWEB-0507             
1 54125U 22138N   22305.25001157  .00014913  00000+0  14911-2 0  9991
2 54125  87.4298 213.8532 0008072 261.3374 302.2627 14.91348717  2283
ONEWEB-0508             
1 54126U 22138P   22304.91668981 -.00053701  00000+0 -55299-2 0  9992
2 54126  87.4303 213.9669 0011156 257.0761 294.0073 14.90633447  1303
ONEWEB-0509             
1 54127U 22138Q   22304.91668981 -.00052514  00000+0 -55068-2 0  9998
2 54127  87.4321 213.9731 0013585 267.5622 258.6027 14.89872536  1301
ONEWEB-0510             
1 54128U 22138R   22304.91668981 -.00053769  00000+0 -53875-2 0  9996
2 54128  87.4292 213.9595 0008268 277.0395 310.5646 14.91751249  1307
ONEWEB-0511             
1 54129U 22138S   22304.91668981 -.00053943  00000+0 -55221-2 0  9998
2 54129  87.4304 213.9678 0010016 256.4210 302.6422 14.90881225  1306
ONEWEB-0512             
1 54130U 22138T   22304.91668981 -.00052666  00000+0 -55165-2 0  9998
2 54130  87.4273 213.9669 0013204 266.9597 260.7838 14.89923367  1306
ONEWEB-0513             
1 54131U 22138U   22304.91668981 -.01037415  00000+0 -14847+0 0  9994
2 54131  87.4467 213.9829 0008181 266.3613 187.3123 14.79519704  1307
ONEWEB-0514             
1 54132U 22138V   22304.91668981 -.00054044  00000+0 -55220-2 0  9994
2 54132  87.4298 213.9624 0009673 257.5572 304.1777 14.90960391  1305
ONEWEB-0515             
1 54133U 22138W   22305.25001157  .00043129  00000+0  42798-2 0  9995
2 54133  87.4274 213.8482 0008041 268.2550 300.8758 14.91539259  2280
ONEWEB-0516             
1 54134U 22138X   22305.25001157  .00014813  00000+0  15021-2 0  9993
2 54134  87.4303 213.8574 0010219 254.4183 289.5046 14.90769362  2287
ONEWEB-0517             
1 54135U 22138Y   22305.25001157  .00014652  00000+0  14969-2 0  9995
2 54135  87.4285 213.8585 0011746 257.2528 276.0265 14.90457420  2282
ONEWEB-0518             
1 54136U 22138Z   22305.25001157  .00014427  00000+0  14876-2 0  9993
2 54136  87.4301 213.8606 0012577 262.5760 257.8966 14.90078477  2282
ONEWEB-0519             
1 54137U 22138AA  22304.91668981 -.00054084  00000+0 -55018-2 0  9998
2 54137  87.4304 213.9660 0009002 260.0186 307.6190 14.91142198  1309
ONEWEB-0520             
1 54138U 22138AB  22305.25001157  .00013388  00000+0  13651-2 0  9990
2 54138  87.4314 213.8584 0011365 256.6745 279.4782 14.90539985  2286
ONEWEB-0521             
1 54139U 22138AC  22305.00002315 -.00008753  00000+0 -93153-3 0  9999
2 54139  87.4292 213.9444 0013107 280.9951 308.3487 14.89134536  2244
ONEWEB-0522             
1 54140U 22138AD  22305.00002315 -.00008968  00000+0 -94033-3 0  9997
2 54140  87.4313 213.9451 0013852 269.4556 339.2389 14.89724889  2248
ONEWEB-0523             
1 54141U 22138AE  22305.25001157  .00013578  00000+0  13466-2 0  9999
2 54141  87.4308 213.8534 0008048 274.9466 299.8029 14.91675446  2289
ONEWEB-0524             
1 54142U 22138AF  22305.25001157  .00013545  00000+0  13445-2 0  9991
2 54142  87.4279 213.8485 0008027 273.8875 299.6541 14.91639357  2289
ONEWEB-0525             
1 54143U 22138AG  22305.00002315 -.00008715  00000+0 -89920-3 0  9999
2 54143  87.4317 213.9406 0012041 258.6810  12.2940 14.90396509  2244
ONEWEB-0526             
1 54144U 22138AH  22305.00002315 -.00008960  00000+0 -94020-3 0  9999
2 54144  87.4294 213.9430 0013913 269.9567 337.8569 14.89696132  2245
ONEWEB-0529             
1 54145U 22138AJ  22305.00002315 -.00008628  00000+0 -89817-3 0  9999
2 54145  87.4283 213.9401 0013244 264.2881 354.4105 14.90025041  2244
ONEWEB-0531             
1 54146U 22138AK  22305.25001157  .00013500  00000+0  13427-2 0  9996
2 54146  87.4317 213.8555 0008117 271.0863 299.7424 14.91560116  2288
ONEWEB-0535             
1 54147U 22138AL  22305.00002315 -.00008885  00000+0 -90010-3 0  9993
2 54147  87.4301 213.9363 0008833 260.4076  35.5586 14.91153738  2242
ONEWEB-0536             
1 54148U 22138AM  22305.00002315 -.00008603  00000+0 -86585-3 0  9994
2 54148  87.4311 213.9368 0007977 267.7081  37.1747 14.91425146  2245
GSLV R/B                
1 54149U 22138AN  22304.83414785  .00002183  00000+0  23848-3 0  9991
2 54149  87.3899 214.0068 0022888 248.2241 111.6550 14.87239438  1358
GONETS-M 23             
1 54150U 22139A   22305.14550194  .00000010  00000+0  00000+0 0  9992
2 54150  82.4992  91.0268 0011875 252.7325 107.2459 12.43421233  1166
GONETS-M 24             
1 54151U 22139B   22305.14413079  .00000010  00000+0  00000+0 0  9993
2 54151  82.4940  91.0188 0012232 248.0617 111.9166 12.43605541  1164
GONETS-M 25             
1 54152U 22139C   22305.14143866  .00000010  00000+0  00000+0 0  9998
2 54152  82.4974  91.0214 0013409 241.3318 118.6421 12.43968010  1164
PROGRESS-MS 21          
1 54155U 22140A   22304.51317130  .00016748  00000+0  30494-3 0  9999
2 54155  51.6438  21.2332 0006312  23.9726 155.8350 15.49597428366324
2022-142A               
1 54214U 22142A   22305.24608000 -.00000139  00000+0  00000+0 0  9991
2 54214  59.9951 352.5002 0033222 157.3651 316.3685 14.35496923   461
2022-142B               
1 54215U 22142B   22305.15889523 -.00000139  00000+0  00000+0 0  9993
2 54215  59.9032 352.7072 0026461 201.1458 158.8486 14.33505119   454
CSS (MENGTIAN)          
1 54216U 22143A   22304.75570515 -.00000347  00000+0  00000+0 0  9999
2 54216  41.4734 106.8095 0005006 271.6179 217.9061 15.61487463    41
CZ-5B R/B               
1 54217U 22143B   22304.87417932  .01900784  75819-5  58942-3 0  9998
2 54217  41.4733 105.9555 0103863 176.5493 309.7174 16.13052942    81
ATLAS CENTAUR 2         
1 00694U 63047A   22304.83691867  .00002927  00000+0  36809-3 0  9996
2 00694  30.3538 157.4361 0580168 154.0778 209.0114 14.03994474958868
THOR AGENA D R/B        
1 00733U 64002A   22304.81018497  .00000307  00000+0  12998-3 0  9995
2 00733  98.9968 239.0472 0032865 224.8691 134.9834 14.32598011 62832
SL-3 R/B                
1 00877U 64053B   22304.78583448  .00000220  00000+0  69950-4 0  9994
2 00877  65.0775 316.9982 0052002  50.2512 310.3151 14.59605638 87912
SL-8 R/B                
1 02802U 67045B   22304.47269738  .00000404  00000+0  12300-3 0  9997
2 02802  74.0102 113.1152 0065469  55.0590 305.6692 14.43982788912171
SL-8 R/B                
1 03230U 68040B   22304.88713184  .00002762  00000+0  27550-3 0  9995
2 03230  74.0352 272.1001 0028021  59.0505 301.3426 14.91808813906727
OAO 2                   
1 03597U 68110A   22304.55860334  .00000272  00000+0  80578-4 0  9997
2 03597  34.9936 258.1851 0005187 106.4055 253.7206 14.46013394841623
ISIS 1                  
1 03669U 69009A   22304.66268690  .00000281  00000+0  18891-3 0  9992
2 03669  88.4093 290.4383 1711784  40.6535 331.0393 11.29583422210179
SERT 2                  
1 04327U 70009A   22304.75844935  .00000020  00000+0  81923-4 0  9996
2 04327  99.1293 304.1603 0005727  65.6192 108.4908 13.58531491613558
